{
"type": "FeatureCollection",
"name": "v11c-counties",
"features": [
{ "type": "Feature", "properties": { "geoid": "01045", "state": "AL", "name": "Dale County", "cx": -85.6034, "cy": 31.4665 }, "geometry": { "type": "Polygon", "coordinates": [ [ [ -85.791, 31.196 ], [ -85.71, 31.195 ], [ -85.666, 31.267 ], [ -85.486, 31.246 ], [ -85.417, 31.315 ], [ -85.416, 31.619 ], [ -85.789, 31.618 ], [ -85.791, 31.196 ] ] ] } },
{ "type": "Feature", "properties": { "geoid": "01061", "state": "AL", "name": "Geneva County", "cx": -85.8395, "cy": 31.0978 }, "geometry": { "type": "Polygon", "coordinates": [ [ [ -86.191, 31.014 ], [ -85.488, 30.998 ], [ -85.486, 31.2 ], [ -86.193, 31.192 ], [ -86.191, 31.014 ] ] ] } },
{ "type": "Feature", "properties": { "geoid": "01067", "state": "AL", "name": "Henry County", "cx": -85.2318, "cy": 31.5321 }, "geometry": { "type": "Polygon", "coordinates": [ [ [ -85.417, 31.315 ], [ -85.089, 31.309 ], [ -85.042, 31.545 ], [ -85.058, 31.62 ], [ -85.126, 31.695 ], [ -85.125, 31.763 ], [ -85.216, 31.702 ], [ -85.416, 31.707 ], [ -85.417, 31.315 ] ] ] } },
{ "type": "Feature", "properties": { "geoid": "01069", "state": "AL", "name": "Houston County", "cx": -85.279, "cy": 31.1473 }, "geometry": { "type": "Polygon", "coordinates": [ [ [ -85.71, 31.195 ], [ -85.486, 31.2 ], [ -85.488, 30.998 ], [ -85.002, 31.001 ], [ -85.036, 31.108 ], [ -85.108, 31.186 ], [ -85.089, 31.309 ], [ -85.417, 31.315 ], [ -85.486, 31.246 ], [ -85.666, 31.267 ], [ -85.71, 31.195 ] ] ] } },
{ "type": "Feature", "properties": { "geoid": "12001", "state": "FL", "name": "Alachua County", "cx": -82.3547, "cy": 29.6337 }, "geometry": { "type": "Polygon", "coordinates": [ [ [ -82.656, 29.565 ], [ -82.558, 29.538 ], [ -82.557, 29.48 ], [ -82.211, 29.484 ], [ -82.199, 29.422 ], [ -82.056, 29.471 ], [ -82.051, 29.703 ], [ -82.133, 29.836 ], [ -82.273, 29.843 ], [ -82.511, 29.945 ], [ -82.659, 29.83 ], [ -82.656, 29.565 ] ] ] } },
{ "type": "Feature", "properties": { "geoid": "12003", "state": "FL", "name": "Baker County", "cx": -82.2545, "cy": 30.3171 }, "geometry": { "type": "Polygon", "coordinates": [ [ [ -82.46, 30.584 ], [ -82.458, 30.136 ], [ -82.049, 30.143 ], [ -82.051, 30.368 ], [ -82.18, 30.369 ], [ -82.219, 30.564 ], [ -82.46, 30.584 ] ] ] } },
{ "type": "Feature", "properties": { "geoid": "12005", "state": "FL", "name": "Bay County", "cx": -85.6579, "cy": 30.2349 }, "geometry": { "type": "Polygon", "coordinates": [ [ [ -85.996, 30.269 ], [ -85.601, 30.056 ], [ -85.488, 29.961 ], [ -85.389, 29.924 ], [ -85.384, 30.567 ], [ -85.486, 30.568 ], [ -85.488, 30.437 ], [ -85.854, 30.441 ], [ -85.993, 30.389 ], [ -85.996, 30.269 ] ] ] } },
{ "type": "Feature", "properties": { "geoid": "12007", "state": "FL", "name": "Bradford County", "cx": -82.2053, "cy": 29.9398 }, "geometry": { "type": "Polygon", "coordinates": [ [ [ -82.419, 29.923 ], [ -82.273, 29.843 ], [ -82.133, 29.836 ], [ -82.049, 29.719 ], [ -82.049, 30.143 ], [ -82.143, 30.143 ], [ -82.307, 29.956 ], [ -82.419, 29.923 ] ] ] } },
{ "type": "Feature", "properties": { "geoid": "12009", "state": "FL", "name": "Brevard County", "cx": -80.7345, "cy": 28.2971 }, "geometry": { "type": "Polygon", "coordinates": [ [ [ -80.987, 28.613 ], [ -80.886, 28.51 ], [ -80.869, 27.823 ], [ -80.509, 27.822 ], [ -80.448, 27.861 ], [ -80.59, 28.178 ], [ -80.607, 28.336 ], [ -80.588, 28.411 ], [ -80.525, 28.459 ], [ -80.584, 28.598 ], [ -80.728, 28.791 ], [ -80.968, 28.79 ], [ -80.987, 28.613 ] ] ] } },
{ "type": "Feature", "properties": { "geoid": "12011", "state": "FL", "name": "Broward County", "cx": -80.4873, "cy": 26.1713 }, "geometry": { "type": "Polygon", "coordinates": [ [ [ -80.881, 26.334 ], [ -80.873, 25.979 ], [ -80.68, 25.979 ], [ -80.68, 25.957 ], [ -80.115, 25.973 ], [ -80.076, 26.321 ], [ -80.881, 26.334 ] ] ] } },
{ "type": "Feature", "properties": { "geoid": "12013", "state": "FL", "name": "Calhoun County", "cx": -85.1998, "cy": 30.3972 }, "geometry": { "type": "Polygon", "coordinates": [ [ [ -85.39, 30.201 ], [ -85.116, 30.2 ], [ -85.034, 30.312 ], [ -85.043, 30.352 ], [ -84.983, 30.442 ], [ -84.99, 30.525 ], [ -84.933, 30.606 ], [ -85.168, 30.608 ], [ -85.172, 30.564 ], [ -85.384, 30.567 ], [ -85.39, 30.201 ] ] ] } },
{ "type": "Feature", "properties": { "geoid": "12015", "state": "FL", "name": "Charlotte County", "cx": -81.9528, "cy": 26.9018 }, "geometry": { "type": "Polygon", "coordinates": [ [ [ -82.369, 26.946 ], [ -82.281, 26.789 ], [ -82.206, 26.771 ], [ -81.566, 26.77 ], [ -81.563, 27.034 ], [ -82.255, 27.033 ], [ -82.256, 26.945 ], [ -82.369, 26.946 ] ] ] } },
{ "type": "Feature", "properties": { "geoid": "12017", "state": "FL", "name": "Citrus County", "cx": -82.4755, "cy": 28.8779 }, "geometry": { "type": "Polygon", "coordinates": [ [ [ -82.756, 29.001 ], [ -82.689, 28.906 ], [ -82.73, 28.85 ], [ -82.712, 28.721 ], [ -82.669, 28.694 ], [ -82.263, 28.668 ], [ -82.169, 28.793 ], [ -82.312, 28.96 ], [ -82.459, 29.048 ], [ -82.613, 29.009 ], [ -82.712, 29.031 ], [ -82.756, 29.001 ] ] ] } },
{ "type": "Feature", "properties": { "geoid": "12019", "state": "FL", "name": "Clay County", "cx": -81.8192, "cy": 29.8981 }, "geometry": { "type": "Polygon", "coordinates": [ [ [ -82.049, 30.187 ], [ -82.049, 29.719 ], [ -81.939, 29.747 ], [ -81.909, 29.794 ], [ -81.812, 29.836 ], [ -81.581, 29.84 ], [ -81.601, 29.956 ], [ -81.689, 30.031 ], [ -81.68, 30.19 ], [ -82.049, 30.187 ] ] ] } },
{ "type": "Feature", "properties": { "geoid": "12021", "state": "FL", "name": "Collier County", "cx": -81.3487, "cy": 26.2027 }, "geometry": { "type": "Polygon", "coordinates": [ [ [ -81.845, 26.328 ], [ -81.727, 25.907 ], [ -81.673, 25.857 ], [ -81.615, 25.894 ], [ -81.442, 25.803 ], [ -80.873, 25.805 ], [ -80.88, 26.259 ], [ -81.268, 26.253 ], [ -81.272, 26.517 ], [ -81.564, 26.513 ], [ -81.562, 26.423 ], [ -81.66, 26.421 ], [ -81.658, 26.318 ], [ -81.845, 26.328 ] ] ] } },
{ "type": "Feature", "properties": { "geoid": "12023", "state": "FL", "name": "Columbia County", "cx": -82.6265, "cy": 30.2443 }, "geometry": { "type": "Polygon", "coordinates": [ [ [ -82.8, 29.932 ], [ -82.768, 29.897 ], [ -82.641, 29.828 ], [ -82.53, 29.941 ], [ -82.576, 29.991 ], [ -82.458, 30.136 ], [ -82.46, 30.584 ], [ -82.69, 30.598 ], [ -82.727, 30.559 ], [ -82.647, 30.395 ], [ -82.69, 30.333 ], [ -82.795, 30.337 ], [ -82.794, 29.986 ], [ -82.762, 29.966 ], [ -82.8, 29.932 ] ] ] } },
{ "type": "Feature", "properties": { "geoid": "12027", "state": "FL", "name": "DeSoto County", "cx": -81.81, "cy": 27.1215 }, "geometry": { "type": "Polygon", "coordinates": [ [ [ -82.058, 27.032 ], [ -81.563, 27.034 ], [ -81.564, 27.341 ], [ -82.056, 27.338 ], [ -82.058, 27.032 ] ] ] } },
{ "type": "Feature", "properties": { "geoid": "12029", "state": "FL", "name": "Dixie County", "cx": -83.1774, "cy": 29.5544 }, "geometry": { "type": "Polygon", "coordinates": [ [ [ -83.414, 29.666 ], [ -83.402, 29.523 ], [ -83.295, 29.438 ], [ -83.241, 29.433 ], [ -83.166, 29.289 ], [ -83.061, 29.349 ], [ -82.984, 29.471 ], [ -82.937, 29.591 ], [ -82.95, 29.754 ], [ -82.921, 29.824 ], [ -83.319, 29.823 ], [ -83.366, 29.666 ], [ -83.414, 29.666 ] ] ] } },
{ "type": "Feature", "properties": { "geoid": "12031", "state": "FL", "name": "Duval County", "cx": -81.6528, "cy": 30.4037 }, "geometry": { "type": "Polygon", "coordinates": [ [ [ -82.049, 30.187 ], [ -81.68, 30.19 ], [ -81.68, 30.121 ], [ -81.434, 30.106 ], [ -81.437, 30.252 ], [ -81.374, 30.253 ], [ -81.411, 30.482 ], [ -81.5, 30.564 ], [ -81.543, 30.524 ], [ -81.61, 30.554 ], [ -81.606, 30.586 ], [ -81.722, 30.572 ], [ -82.049, 30.273 ], [ -82.049, 30.187 ] ] ] } },
{ "type": "Feature", "properties": { "geoid": "12035", "state": "FL", "name": "Flagler County", "cx": -81.3127, "cy": 29.4636 }, "geometry": { "type": "Polygon", "coordinates": [ [ [ -81.521, 29.5 ], [ -81.477, 29.397 ], [ -81.421, 29.4 ], [ -81.417, 29.261 ], [ -81.15, 29.266 ], [ -81.156, 29.411 ], [ -81.103, 29.427 ], [ -81.21, 29.671 ], [ -81.324, 29.626 ], [ -81.524, 29.622 ], [ -81.521, 29.5 ] ] ] } },
{ "type": "Feature", "properties": { "geoid": "12037", "state": "FL", "name": "Franklin County", "cx": -84.8129, "cy": 29.7981 }, "geometry": { "type": "Polygon", "coordinates": [ [ [ -85.22, 29.666 ], [ -85.045, 29.587 ], [ -84.565, 29.81 ], [ -84.577, 29.888 ], [ -84.536, 29.91 ], [ -84.349, 29.897 ], [ -84.341, 29.962 ], [ -84.468, 30.002 ], [ -84.524, 29.982 ], [ -84.544, 30.011 ], [ -85.008, 30.014 ], [ -85.053, 29.911 ], [ -85.039, 29.78 ], [ -85.109, 29.777 ], [ -85.206, 29.711 ], [ -85.22, 29.666 ] ] ] } },
{ "type": "Feature", "properties": { "geoid": "12039", "state": "FL", "name": "Gadsden County", "cx": -84.6334, "cy": 30.5533 }, "geometry": { "type": "Polygon", "coordinates": [ [ [ -84.883, 30.606 ], [ -84.883, 30.533 ], [ -84.782, 30.519 ], [ -84.781, 30.46 ], [ -84.646, 30.388 ], [ -84.405, 30.474 ], [ -84.378, 30.573 ], [ -84.286, 30.685 ], [ -84.865, 30.712 ], [ -84.933, 30.606 ], [ -84.883, 30.606 ] ] ] } },
{ "type": "Feature", "properties": { "geoid": "12041", "state": "FL", "name": "Gilchrist County", "cx": -82.8047, "cy": 29.6728 }, "geometry": { "type": "Polygon", "coordinates": [ [ [ -82.955, 29.586 ], [ -82.656, 29.565 ], [ -82.659, 29.83 ], [ -82.768, 29.897 ], [ -82.77, 29.928 ], [ -82.863, 29.911 ], [ -82.893, 29.827 ], [ -82.921, 29.824 ], [ -82.955, 29.586 ] ] ] } },
{ "type": "Feature", "properties": { "geoid": "12043", "state": "FL", "name": "Glades County", "cx": -81.2237, "cy": 26.9957 }, "geometry": { "type": "Polygon", "coordinates": [ [ [ -81.566, 26.77 ], [ -80.945, 26.769 ], [ -80.886, 26.959 ], [ -80.879, 27.169 ], [ -80.941, 27.206 ], [ -81.169, 27.21 ], [ -81.168, 27.122 ], [ -81.268, 27.121 ], [ -81.267, 27.032 ], [ -81.563, 27.034 ], [ -81.566, 26.77 ] ] ] } },
{ "type": "Feature", "properties": { "geoid": "12045", "state": "FL", "name": "Gulf County", "cx": -85.2127, "cy": 29.9477 }, "geometry": { "type": "Polygon", "coordinates": [ [ [ -85.403, 29.759 ], [ -85.353, 29.66 ], [ -85.22, 29.666 ], [ -85.206, 29.711 ], [ -85.109, 29.777 ], [ -85.039, 29.78 ], [ -85.053, 29.911 ], [ -85.025, 29.971 ], [ -85.114, 30.023 ], [ -85.154, 30.092 ], [ -85.116, 30.2 ], [ -85.39, 30.201 ], [ -85.403, 29.759 ] ] ] } },
{ "type": "Feature", "properties": { "geoid": "12047", "state": "FL", "name": "Hamilton County", "cx": -82.9698, "cy": 30.5012 }, "geometry": { "type": "Polygon", "coordinates": [ [ [ -83.273, 30.628 ], [ -83.222, 30.423 ], [ -83.171, 30.385 ], [ -83.082, 30.443 ], [ -82.789, 30.324 ], [ -82.69, 30.333 ], [ -82.647, 30.395 ], [ -82.727, 30.559 ], [ -82.69, 30.598 ], [ -83.309, 30.634 ], [ -83.273, 30.628 ] ] ] } },
{ "type": "Feature", "properties": { "geoid": "12049", "state": "FL", "name": "Hardee County", "cx": -81.8094, "cy": 27.4935 }, "geometry": { "type": "Polygon", "coordinates": [ [ [ -82.056, 27.338 ], [ -81.564, 27.341 ], [ -81.564, 27.647 ], [ -82.054, 27.646 ], [ -82.056, 27.338 ] ] ] } },
{ "type": "Feature", "properties": { "geoid": "12051", "state": "FL", "name": "Hendry County", "cx": -81.2246, "cy": 26.6847 }, "geometry": { "type": "Polygon", "coordinates": [ [ [ -81.566, 26.77 ], [ -81.564, 26.513 ], [ -81.272, 26.517 ], [ -81.268, 26.253 ], [ -80.88, 26.259 ], [ -80.886, 26.959 ], [ -80.945, 26.769 ], [ -81.566, 26.77 ] ] ] } },
{ "type": "Feature", "properties": { "geoid": "12053", "state": "FL", "name": "Hernando County", "cx": -82.4128, "cy": 28.5584 }, "geometry": { "type": "Polygon", "coordinates": [ [ [ -82.691, 28.433 ], [ -82.253, 28.435 ], [ -82.253, 28.478 ], [ -82.055, 28.478 ], [ -82.054, 28.521 ], [ -82.208, 28.572 ], [ -82.263, 28.668 ], [ -82.669, 28.694 ], [ -82.657, 28.545 ], [ -82.691, 28.433 ] ] ] } },
{ "type": "Feature", "properties": { "geoid": "12055", "state": "FL", "name": "Highlands County", "cx": -81.2812, "cy": 27.2792 }, "geometry": { "type": "Polygon", "coordinates": [ [ [ -81.564, 27.647 ], [ -81.563, 27.034 ], [ -81.267, 27.032 ], [ -81.268, 27.121 ], [ -81.168, 27.122 ], [ -81.169, 27.21 ], [ -80.941, 27.206 ], [ -81.034, 27.359 ], [ -81.098, 27.379 ], [ -81.214, 27.529 ], [ -81.14, 27.601 ], [ -81.142, 27.643 ], [ -81.564, 27.647 ] ] ] } },
{ "type": "Feature", "properties": { "geoid": "12057", "state": "FL", "name": "Hillsborough County", "cx": -82.3191, "cy": 27.918 }, "geometry": { "type": "Polygon", "coordinates": [ [ [ -82.651, 28.173 ], [ -82.649, 27.979 ], [ -82.573, 27.909 ], [ -82.566, 27.836 ], [ -82.449, 27.81 ], [ -82.432, 27.768 ], [ -82.553, 27.645 ], [ -82.054, 27.646 ], [ -82.056, 28.172 ], [ -82.651, 28.173 ] ] ] } },
{ "type": "Feature", "properties": { "geoid": "12059", "state": "FL", "name": "Holmes County", "cx": -85.8002, "cy": 30.9025 }, "geometry": { "type": "Polygon", "coordinates": [ [ [ -86.038, 30.705 ], [ -85.844, 30.703 ], [ -85.822, 30.791 ], [ -85.736, 30.746 ], [ -85.619, 30.744 ], [ -85.6, 30.831 ], [ -85.498, 30.998 ], [ -86.035, 30.994 ], [ -86.038, 30.705 ] ] ] } },
{ "type": "Feature", "properties": { "geoid": "12061", "state": "FL", "name": "Indian River County", "cx": -80.6206, "cy": 27.6916 }, "geometry": { "type": "Polygon", "coordinates": [ [ [ -80.873, 27.642 ], [ -80.778, 27.643 ], [ -80.777, 27.559 ], [ -80.317, 27.557 ], [ -80.448, 27.861 ], [ -80.509, 27.822 ], [ -80.869, 27.823 ], [ -80.873, 27.642 ] ] ] } },
{ "type": "Feature", "properties": { "geoid": "12063", "state": "FL", "name": "Jackson County", "cx": -85.1761, "cy": 30.7788 }, "geometry": { "type": "Polygon", "coordinates": [ [ [ -85.6, 30.831 ], [ -85.482, 30.83 ], [ -85.432, 30.785 ], [ -85.435, 30.568 ], [ -85.172, 30.564 ], [ -85.168, 30.608 ], [ -84.933, 30.606 ], [ -84.861, 30.693 ], [ -85.002, 31.001 ], [ -85.498, 30.998 ], [ -85.6, 30.831 ] ] ] } },
{ "type": "Feature", "properties": { "geoid": "12065", "state": "FL", "name": "Jefferson County", "cx": -83.9195, "cy": 30.403 }, "geometry": { "type": "Polygon", "coordinates": [ [ [ -84.076, 30.099 ], [ -83.992, 30.089 ], [ -83.916, 30.245 ], [ -83.82, 30.304 ], [ -83.807, 30.372 ], [ -83.722, 30.434 ], [ -83.737, 30.508 ], [ -83.604, 30.582 ], [ -83.612, 30.652 ], [ -84.007, 30.672 ], [ -83.977, 30.522 ], [ -84.075, 30.434 ], [ -84.076, 30.099 ] ] ] } },
{ "type": "Feature", "properties": { "geoid": "12067", "state": "FL", "name": "Lafayette County", "cx": -83.2156, "cy": 30.0514 }, "geometry": { "type": "Polygon", "coordinates": [ [ [ -83.367, 30.26 ], [ -83.353, 29.822 ], [ -82.893, 29.827 ], [ -82.88, 29.887 ], [ -82.963, 29.993 ], [ -83.161, 30.11 ], [ -83.225, 30.113 ], [ -83.247, 30.261 ], [ -83.367, 30.26 ] ] ] } },
{ "type": "Feature", "properties": { "geoid": "12069", "state": "FL", "name": "Lake County", "cx": -81.6856, "cy": 28.8022 }, "geometry": { "type": "Polygon", "coordinates": [ [ [ -81.958, 28.345 ], [ -81.657, 28.347 ], [ -81.659, 28.766 ], [ -81.415, 28.786 ], [ -81.367, 28.879 ], [ -81.355, 28.985 ], [ -81.502, 29.098 ], [ -81.531, 29.177 ], [ -81.612, 29.203 ], [ -81.642, 29.277 ], [ -81.659, 28.96 ], [ -81.954, 28.96 ], [ -81.958, 28.345 ] ] ] } },
{ "type": "Feature", "properties": { "geoid": "12071", "state": "FL", "name": "Lee County", "cx": -81.8934, "cy": 26.5568 }, "geometry": { "type": "Polygon", "coordinates": [ [ [ -82.281, 26.789 ], [ -82.245, 26.601 ], [ -82.181, 26.476 ], [ -82.127, 26.436 ], [ -81.957, 26.452 ], [ -81.819, 26.316 ], [ -81.658, 26.318 ], [ -81.66, 26.421 ], [ -81.562, 26.423 ], [ -81.566, 26.77 ], [ -82.281, 26.789 ] ] ] } },
{ "type": "Feature", "properties": { "geoid": "12073", "state": "FL", "name": "Leon County", "cx": -84.2039, "cy": 30.4983 }, "geometry": { "type": "Polygon", "coordinates": [ [ [ -84.713, 30.3 ], [ -84.286, 30.303 ], [ -84.241, 30.274 ], [ -84.076, 30.274 ], [ -84.075, 30.434 ], [ -83.977, 30.522 ], [ -84.007, 30.672 ], [ -84.286, 30.685 ], [ -84.378, 30.573 ], [ -84.405, 30.474 ], [ -84.646, 30.388 ], [ -84.715, 30.333 ], [ -84.713, 30.3 ] ] ] } },
{ "type": "Feature", "properties": { "geoid": "12075", "state": "FL", "name": "Levy County", "cx": -82.7589, "cy": 29.3192 }, "geometry": { "type": "Polygon", "coordinates": [ [ [ -83.166, 29.289 ], [ -83.075, 29.248 ], [ -83.053, 29.131 ], [ -83.016, 29.125 ], [ -82.996, 29.178 ], [ -82.827, 29.158 ], [ -82.799, 29.115 ], [ -82.824, 29.099 ], [ -82.76, 29.054 ], [ -82.756, 29.001 ], [ -82.712, 29.031 ], [ -82.613, 29.009 ], [ -82.536, 29.045 ], [ -82.535, 29.215 ], [ -82.403, 29.216 ], [ -82.407, 29.485 ], [ -82.557, 29.48 ], [ -82.558, 29.538 ], [ -82.937, 29.591 ], [ -83.061, 29.349 ], [ -83.166, 29.289 ] ] ] } },
{ "type": "Feature", "properties": { "geoid": "12077", "state": "FL", "name": "Liberty County", "cx": -84.8901, "cy": 30.2501 }, "geometry": { "type": "Polygon", "coordinates": [ [ [ -85.154, 30.092 ], [ -85.114, 30.023 ], [ -85.025, 29.971 ], [ -85.008, 30.014 ], [ -84.544, 30.011 ], [ -84.67, 30.128 ], [ -84.715, 30.333 ], [ -84.646, 30.388 ], [ -84.781, 30.46 ], [ -84.782, 30.519 ], [ -84.883, 30.533 ], [ -84.883, 30.606 ], [ -84.933, 30.606 ], [ -84.99, 30.525 ], [ -84.983, 30.442 ], [ -85.154, 30.092 ] ] ] } },
{ "type": "Feature", "properties": { "geoid": "12079", "state": "FL", "name": "Madison County", "cx": -83.4815, "cy": 30.471 }, "geometry": { "type": "Polygon", "coordinates": [ [ [ -83.82, 30.304 ], [ -83.469, 30.304 ], [ -83.469, 30.26 ], [ -83.247, 30.261 ], [ -83.171, 30.385 ], [ -83.222, 30.423 ], [ -83.273, 30.628 ], [ -83.612, 30.652 ], [ -83.604, 30.582 ], [ -83.737, 30.508 ], [ -83.722, 30.434 ], [ -83.807, 30.372 ], [ -83.82, 30.304 ] ] ] } },
{ "type": "Feature", "properties": { "geoid": "12081", "state": "FL", "name": "Manatee County", "cx": -82.3627, "cy": 27.4135 }, "geometry": { "type": "Polygon", "coordinates": [ [ [ -82.743, 27.531 ], [ -82.648, 27.39 ], [ -82.252, 27.386 ], [ -82.254, 27.211 ], [ -82.056, 27.208 ], [ -82.054, 27.646 ], [ -82.553, 27.645 ], [ -82.651, 27.523 ], [ -82.743, 27.531 ] ] ] } },
{ "type": "Feature", "properties": { "geoid": "12083", "state": "FL", "name": "Marion County", "cx": -82.0227, "cy": 29.2462 }, "geometry": { "type": "Polygon", "coordinates": [ [ [ -82.536, 29.045 ], [ -82.459, 29.048 ], [ -82.312, 28.96 ], [ -81.659, 28.96 ], [ -81.642, 29.277 ], [ -81.741, 29.371 ], [ -81.776, 29.487 ], [ -81.843, 29.521 ], [ -82.004, 29.502 ], [ -82.199, 29.422 ], [ -82.211, 29.484 ], [ -82.407, 29.485 ], [ -82.403, 29.216 ], [ -82.535, 29.215 ], [ -82.536, 29.045 ] ] ] } },
{ "type": "Feature", "properties": { "geoid": "12085", "state": "FL", "name": "Martin County", "cx": -80.4215, "cy": 27.092 }, "geometry": { "type": "Polygon", "coordinates": [ [ [ -80.886, 26.959 ], [ -80.142, 26.957 ], [ -80.083, 26.971 ], [ -80.198, 27.263 ], [ -80.285, 27.264 ], [ -80.286, 27.206 ], [ -80.678, 27.206 ], [ -80.677, 27.122 ], [ -80.886, 26.959 ] ] ] } },
{ "type": "Feature", "properties": { "geoid": "12086", "state": "FL", "name": "Miami-Dade County", "cx": -80.5904, "cy": 25.5762 }, "geometry": { "type": "Polygon", "coordinates": [ [ [ -80.873, 25.979 ], [ -80.858, 25.178 ], [ -80.812, 25.186 ], [ -80.748, 25.147 ], [ -80.651, 25.189 ], [ -80.495, 25.2 ], [ -80.395, 25.254 ], [ -80.372, 25.31 ], [ -80.229, 25.342 ], [ -80.163, 25.452 ], [ -80.176, 25.521 ], [ -80.235, 25.422 ], [ -80.31, 25.39 ], [ -80.337, 25.466 ], [ -80.301, 25.613 ], [ -80.229, 25.733 ], [ -80.155, 25.665 ], [ -80.11, 25.818 ], [ -80.115, 25.973 ], [ -80.68, 25.957 ], [ -80.68, 25.979 ], [ -80.873, 25.979 ] ] ] } },
{ "type": "Feature", "properties": { "geoid": "12087", "state": "FL", "name": "Monroe County", "cx": -81.4736, "cy": 24.6868 }, "geometry": { "type": "MultiPolygon", "coordinates": [ [ [ [ -81.103, 24.669 ], [ -80.651, 24.866 ], [ -80.358, 25.153 ], [ -80.229, 25.342 ], [ -80.372, 25.31 ], [ -80.395, 25.254 ], [ -80.483, 25.225 ], [ -80.517, 25.095 ], [ -80.611, 25.007 ], [ -80.847, 24.852 ], [ -81.149, 24.71 ], [ -81.103, 24.669 ] ] ], [ [ [ -81.384, 25.777 ], [ -81.356, 25.704 ], [ -81.29, 25.674 ], [ -81.241, 25.599 ], [ -81.147, 25.408 ], [ -81.171, 25.246 ], [ -81.142, 25.183 ], [ -81.08, 25.119 ], [ -80.916, 25.141 ], [ -80.858, 25.178 ], [ -80.873, 25.805 ], [ -81.442, 25.803 ], [ -81.384, 25.777 ] ] ], [ [ [ -81.813, 24.545 ], [ -81.685, 24.559 ], [ -81.444, 24.643 ], [ -81.402, 24.624 ], [ -81.243, 24.674 ], [ -81.305, 24.755 ], [ -81.444, 24.813 ], [ -81.751, 24.654 ], [ -81.813, 24.545 ] ] ], [ [ [ -82.028, 24.499 ], [ -81.919, 24.498 ], [ -81.869, 24.584 ], [ -81.984, 24.581 ], [ -82.028, 24.499 ] ] ], [ [ [ -82.179, 24.529 ], [ -82.101, 24.533 ], [ -82.087, 24.59 ], [ -82.144, 24.622 ], [ -82.188, 24.575 ], [ -82.179, 24.529 ] ] ] ] } },
{ "type": "Feature", "properties": { "geoid": "12089", "state": "FL", "name": "Nassau County", "cx": -81.8787, "cy": 30.5428 }, "geometry": { "type": "Polygon", "coordinates": [ [ [ -82.049, 30.273 ], [ -81.722, 30.572 ], [ -81.606, 30.586 ], [ -81.61, 30.554 ], [ -81.543, 30.524 ], [ -81.5, 30.564 ], [ -81.429, 30.506 ], [ -81.427, 30.698 ], [ -81.732, 30.75 ], [ -81.943, 30.827 ], [ -82.033, 30.751 ], [ -82.05, 30.656 ], [ -82.016, 30.602 ], [ -82.049, 30.273 ] ] ] } },
{ "type": "Feature", "properties": { "geoid": "12093", "state": "FL", "name": "Okeechobee County", "cx": -80.8406, "cy": 27.2885 }, "geometry": { "type": "Polygon", "coordinates": [ [ [ -81.214, 27.529 ], [ -81.098, 27.379 ], [ -81.034, 27.359 ], [ -80.971, 27.218 ], [ -80.879, 27.169 ], [ -80.886, 26.959 ], [ -80.677, 27.122 ], [ -80.68, 27.558 ], [ -80.777, 27.559 ], [ -80.778, 27.643 ], [ -81.142, 27.643 ], [ -81.14, 27.601 ], [ -81.214, 27.529 ] ] ] } },
{ "type": "Feature", "properties": { "geoid": "12095", "state": "FL", "name": "Orange County", "cx": -81.2945, "cy": 28.5752 }, "geometry": { "type": "Polygon", "coordinates": [ [ [ -81.647, 28.786 ], [ -81.657, 28.347 ], [ -80.863, 28.347 ], [ -80.886, 28.51 ], [ -80.952, 28.604 ], [ -81.328, 28.611 ], [ -81.362, 28.64 ], [ -81.46, 28.64 ], [ -81.46, 28.713 ], [ -81.415, 28.786 ], [ -81.647, 28.786 ] ] ] } },
{ "type": "Feature", "properties": { "geoid": "12097", "state": "FL", "name": "Osceola County", "cx": -81.1158, "cy": 27.9618 }, "geometry": { "type": "Polygon", "coordinates": [ [ [ -81.657, 28.265 ], [ -81.557, 28.259 ], [ -81.524, 28.143 ], [ -81.456, 28.143 ], [ -81.456, 28.085 ], [ -81.346, 28.085 ], [ -81.379, 28.012 ], [ -81.46, 28.052 ], [ -81.309, 27.922 ], [ -81.302, 27.862 ], [ -81.208, 27.821 ], [ -81.142, 27.643 ], [ -80.873, 27.642 ], [ -80.863, 28.347 ], [ -81.657, 28.347 ], [ -81.657, 28.265 ] ] ] } },
{ "type": "Feature", "properties": { "geoid": "12099", "state": "FL", "name": "Palm Beach County", "cx": -80.4596, "cy": 26.6605 }, "geometry": { "type": "Polygon", "coordinates": [ [ [ -80.881, 26.334 ], [ -80.076, 26.321 ], [ -80.032, 26.772 ], [ -80.083, 26.971 ], [ -80.886, 26.959 ], [ -80.881, 26.334 ] ] ] } },
{ "type": "Feature", "properties": { "geoid": "12101", "state": "FL", "name": "Pasco County", "cx": -82.3949, "cy": 28.3189 }, "geometry": { "type": "Polygon", "coordinates": [ [ [ -82.859, 28.172 ], [ -82.106, 28.172 ], [ -82.106, 28.259 ], [ -82.056, 28.313 ], [ -82.055, 28.478 ], [ -82.253, 28.478 ], [ -82.253, 28.435 ], [ -82.691, 28.433 ], [ -82.764, 28.244 ], [ -82.859, 28.172 ] ] ] } },
{ "type": "Feature", "properties": { "geoid": "12103", "state": "FL", "name": "Pinellas County", "cx": -82.7077, "cy": 27.8817 }, "geometry": { "type": "Polygon", "coordinates": [ [ [ -82.859, 28.172 ], [ -82.828, 28.02 ], [ -82.847, 27.854 ], [ -82.746, 27.731 ], [ -82.733, 27.613 ], [ -82.566, 27.836 ], [ -82.573, 27.909 ], [ -82.649, 27.979 ], [ -82.651, 28.173 ], [ -82.859, 28.172 ] ] ] } },
{ "type": "Feature", "properties": { "geoid": "12105", "state": "FL", "name": "Polk County", "cx": -81.7397, "cy": 28.0067 }, "geometry": { "type": "Polygon", "coordinates": [ [ [ -82.106, 28.172 ], [ -82.056, 28.172 ], [ -82.054, 27.646 ], [ -81.142, 27.643 ], [ -81.208, 27.821 ], [ -81.302, 27.862 ], [ -81.309, 27.922 ], [ -81.46, 28.052 ], [ -81.379, 28.012 ], [ -81.346, 28.085 ], [ -81.456, 28.085 ], [ -81.456, 28.143 ], [ -81.524, 28.143 ], [ -81.557, 28.259 ], [ -81.657, 28.265 ], [ -81.657, 28.347 ], [ -81.858, 28.362 ], [ -81.958, 28.345 ], [ -81.958, 28.309 ], [ -82.056, 28.313 ], [ -82.106, 28.259 ], [ -82.106, 28.172 ] ] ] } },
{ "type": "Feature", "properties": { "geoid": "12107", "state": "FL", "name": "Putnam County", "cx": -81.7881, "cy": 29.5717 }, "geometry": { "type": "Polygon", "coordinates": [ [ [ -82.056, 29.471 ], [ -81.843, 29.521 ], [ -81.776, 29.487 ], [ -81.741, 29.371 ], [ -81.681, 29.324 ], [ -81.434, 29.399 ], [ -81.477, 29.397 ], [ -81.521, 29.5 ], [ -81.525, 29.759 ], [ -81.581, 29.84 ], [ -81.812, 29.836 ], [ -81.909, 29.794 ], [ -81.939, 29.747 ], [ -82.056, 29.718 ], [ -82.056, 29.471 ] ] ] } },
{ "type": "Feature", "properties": { "geoid": "12109", "state": "FL", "name": "St. Johns County", "cx": -81.4458, "cy": 29.9356 }, "geometry": { "type": "Polygon", "coordinates": [ [ [ -81.689, 30.031 ], [ -81.601, 29.956 ], [ -81.581, 29.84 ], [ -81.525, 29.759 ], [ -81.524, 29.622 ], [ -81.324, 29.626 ], [ -81.21, 29.671 ], [ -81.374, 30.253 ], [ -81.437, 30.252 ], [ -81.434, 30.106 ], [ -81.68, 30.121 ], [ -81.689, 30.031 ] ] ] } },
{ "type": "Feature", "properties": { "geoid": "12111", "state": "FL", "name": "St. Lucie County", "cx": -80.4822, "cy": 27.4686 }, "geometry": { "type": "Polygon", "coordinates": [ [ [ -80.678, 27.206 ], [ -80.286, 27.206 ], [ -80.285, 27.264 ], [ -80.198, 27.263 ], [ -80.317, 27.557 ], [ -80.68, 27.558 ], [ -80.678, 27.206 ] ] ] } },
{ "type": "Feature", "properties": { "geoid": "12115", "state": "FL", "name": "Sarasota County", "cx": -82.2707, "cy": 27.1436 }, "geometry": { "type": "Polygon", "coordinates": [ [ [ -82.648, 27.39 ], [ -82.369, 26.946 ], [ -82.256, 26.945 ], [ -82.255, 27.033 ], [ -82.058, 27.032 ], [ -82.056, 27.208 ], [ -82.254, 27.211 ], [ -82.252, 27.386 ], [ -82.648, 27.39 ] ] ] } },
{ "type": "Feature", "properties": { "geoid": "12117", "state": "FL", "name": "Seminole County", "cx": -81.2496, "cy": 28.7314 }, "geometry": { "type": "Polygon", "coordinates": [ [ [ -81.46, 28.64 ], [ -81.362, 28.64 ], [ -81.328, 28.611 ], [ -80.987, 28.613 ], [ -81.068, 28.813 ], [ -81.181, 28.783 ], [ -81.226, 28.833 ], [ -81.32, 28.835 ], [ -81.367, 28.879 ], [ -81.419, 28.819 ], [ -81.46, 28.64 ] ] ] } },
{ "type": "Feature", "properties": { "geoid": "12119", "state": "FL", "name": "Sumter County", "cx": -82.0979, "cy": 28.6141 }, "geometry": { "type": "Polygon", "coordinates": [ [ [ -82.169, 28.793 ], [ -82.275, 28.656 ], [ -82.208, 28.572 ], [ -82.054, 28.521 ], [ -82.056, 28.313 ], [ -81.958, 28.309 ], [ -81.954, 28.96 ], [ -82.312, 28.96 ], [ -82.169, 28.793 ] ] ] } },
{ "type": "Feature", "properties": { "geoid": "12121", "state": "FL", "name": "Suwannee County", "cx": -83.0153, "cy": 30.1869 }, "geometry": { "type": "Polygon", "coordinates": [ [ [ -83.225, 30.113 ], [ -83.161, 30.11 ], [ -82.963, 29.993 ], [ -82.88, 29.887 ], [ -82.762, 29.966 ], [ -82.794, 29.986 ], [ -82.795, 30.337 ], [ -83.002, 30.429 ], [ -83.082, 30.443 ], [ -83.192, 30.375 ], [ -83.247, 30.261 ], [ -83.225, 30.113 ] ] ] } },
{ "type": "Feature", "properties": { "geoid": "12123", "state": "FL", "name": "Taylor County", "cx": -83.6149, "cy": 30.008 }, "geometry": { "type": "Polygon", "coordinates": [ [ [ -83.992, 30.089 ], [ -83.679, 29.919 ], [ -83.538, 29.723 ], [ -83.366, 29.666 ], [ -83.319, 29.823 ], [ -83.353, 29.822 ], [ -83.371, 29.888 ], [ -83.367, 30.26 ], [ -83.469, 30.26 ], [ -83.469, 30.304 ], [ -83.82, 30.304 ], [ -83.916, 30.245 ], [ -83.992, 30.089 ] ] ] } },
{ "type": "Feature", "properties": { "geoid": "12125", "state": "FL", "name": "Union County", "cx": -82.3582, "cy": 30.069 }, "geometry": { "type": "Polygon", "coordinates": [ [ [ -82.53, 29.941 ], [ -82.419, 29.923 ], [ -82.307, 29.956 ], [ -82.143, 30.143 ], [ -82.458, 30.136 ], [ -82.576, 29.991 ], [ -82.53, 29.941 ] ] ] } },
{ "type": "Feature", "properties": { "geoid": "12127", "state": "FL", "name": "Volusia County", "cx": -81.1442, "cy": 29.0245 }, "geometry": { "type": "Polygon", "coordinates": [ [ [ -81.681, 29.324 ], [ -81.612, 29.203 ], [ -81.531, 29.177 ], [ -81.502, 29.098 ], [ -81.355, 28.985 ], [ -81.367, 28.879 ], [ -81.32, 28.835 ], [ -81.226, 28.833 ], [ -81.181, 28.783 ], [ -81.068, 28.813 ], [ -80.987, 28.613 ], [ -80.968, 28.79 ], [ -80.728, 28.791 ], [ -80.966, 29.148 ], [ -81.103, 29.427 ], [ -81.156, 29.411 ], [ -81.15, 29.266 ], [ -81.417, 29.261 ], [ -81.421, 29.4 ], [ -81.681, 29.324 ] ] ] } },
{ "type": "Feature", "properties": { "geoid": "12129", "state": "FL", "name": "Wakulla County", "cx": -84.3822, "cy": 30.2009 }, "geometry": { "type": "Polygon", "coordinates": [ [ [ -84.67, 30.128 ], [ -84.524, 29.982 ], [ -84.468, 30.002 ], [ -84.345, 29.97 ], [ -84.366, 30.009 ], [ -84.29, 30.057 ], [ -84.076, 30.099 ], [ -84.076, 30.274 ], [ -84.241, 30.274 ], [ -84.286, 30.303 ], [ -84.713, 30.3 ], [ -84.67, 30.128 ] ] ] } },
{ "type": "Feature", "properties": { "geoid": "12133", "state": "FL", "name": "Washington County", "cx": -85.6683, "cy": 30.602 }, "geometry": { "type": "Polygon", "coordinates": [ [ [ -85.993, 30.389 ], [ -85.854, 30.441 ], [ -85.488, 30.437 ], [ -85.486, 30.568 ], [ -85.435, 30.568 ], [ -85.432, 30.785 ], [ -85.482, 30.83 ], [ -85.6, 30.831 ], [ -85.619, 30.744 ], [ -85.736, 30.746 ], [ -85.822, 30.791 ], [ -85.844, 30.703 ], [ -85.915, 30.636 ], [ -85.86, 30.49 ], [ -85.993, 30.389 ] ] ] } },
{ "type": "Feature", "properties": { "geoid": "13003", "state": "GA", "name": "Atkinson County", "cx": -82.8483, "cy": 31.321 }, "geometry": { "type": "Polygon", "coordinates": [ [ [ -83.033, 31.275 ], [ -83.047, 31.184 ], [ -82.672, 31.184 ], [ -82.699, 31.278 ], [ -82.63, 31.275 ], [ -82.629, 31.364 ], [ -82.818, 31.364 ], [ -82.844, 31.403 ], [ -83.14, 31.42 ], [ -83.033, 31.275 ] ] ] } },
{ "type": "Feature", "properties": { "geoid": "13007", "state": "GA", "name": "Baker County", "cx": -84.4958, "cy": 31.2822 }, "geometry": { "type": "Polygon", "coordinates": [ [ [ -84.642, 31.259 ], [ -84.537, 31.256 ], [ -84.543, 31.079 ], [ -84.508, 31.078 ], [ -84.471, 31.168 ], [ -84.404, 31.199 ], [ -84.341, 31.305 ], [ -84.201, 31.356 ], [ -84.141, 31.44 ], [ -84.638, 31.434 ], [ -84.642, 31.259 ] ] ] } },
{ "type": "Feature", "properties": { "geoid": "13019", "state": "GA", "name": "Berrien County", "cx": -83.1929, "cy": 31.2598 }, "geometry": { "type": "Polygon", "coordinates": [ [ [ -83.434, 31.35 ], [ -83.336, 31.245 ], [ -83.32, 31.098 ], [ -83.28, 31.063 ], [ -83.295, 31.027 ], [ -83.198, 31.025 ], [ -83.165, 31.147 ], [ -83.038, 31.147 ], [ -83.033, 31.275 ], [ -83.14, 31.42 ], [ -83.146, 31.472 ], [ -83.37, 31.465 ], [ -83.371, 31.401 ], [ -83.434, 31.35 ] ] ] } },
{ "type": "Feature", "properties": { "geoid": "13025", "state": "GA", "name": "Brantley County", "cx": -82.0042, "cy": 31.1865 }, "geometry": { "type": "Polygon", "coordinates": [ [ [ -82.209, 31.171 ], [ -82.208, 31.085 ], [ -82.132, 31.011 ], [ -82.081, 31.011 ], [ -82.061, 31.076 ], [ -81.936, 31.048 ], [ -81.766, 31.17 ], [ -81.732, 31.33 ], [ -81.801, 31.364 ], [ -81.923, 31.346 ], [ -82.041, 31.374 ], [ -81.997, 31.289 ], [ -82.115, 31.27 ], [ -82.193, 31.202 ], [ -82.285, 31.224 ], [ -82.209, 31.171 ] ] ] } },
{ "type": "Feature", "properties": { "geoid": "13027", "state": "GA", "name": "Brooks County", "cx": -83.5666, "cy": 30.8839 }, "geometry": { "type": "Polygon", "coordinates": [ [ [ -83.744, 30.659 ], [ -83.358, 30.637 ], [ -83.482, 30.757 ], [ -83.449, 30.818 ], [ -83.346, 30.854 ], [ -83.442, 30.914 ], [ -83.476, 31.032 ], [ -83.575, 31.078 ], [ -83.574, 31.034 ], [ -83.736, 31.038 ], [ -83.744, 30.659 ] ] ] } },
{ "type": "Feature", "properties": { "geoid": "13039", "state": "GA", "name": "Camden County", "cx": -81.6564, "cy": 30.943 }, "geometry": { "type": "Polygon", "coordinates": [ [ [ -81.936, 31.048 ], [ -81.906, 31.04 ], [ -81.906, 30.821 ], [ -81.869, 30.793 ], [ -81.444, 30.71 ], [ -81.46, 30.77 ], [ -81.408, 30.978 ], [ -81.573, 31.097 ], [ -81.563, 31.13 ], [ -81.632, 31.108 ], [ -81.766, 31.17 ], [ -81.936, 31.048 ] ] ] } },
{ "type": "Feature", "properties": { "geoid": "13049", "state": "GA", "name": "Charlton County", "cx": -82.1034, "cy": 30.7215 }, "geometry": { "type": "Polygon", "coordinates": [ [ [ -82.42, 30.795 ], [ -82.15, 30.784 ], [ -82.229, 30.521 ], [ -82.21, 30.425 ], [ -82.18, 30.369 ], [ -82.041, 30.37 ], [ -82.016, 30.602 ], [ -82.05, 30.656 ], [ -82.033, 30.751 ], [ -81.943, 30.827 ], [ -81.906, 30.821 ], [ -81.906, 31.04 ], [ -82.061, 31.076 ], [ -82.081, 31.011 ], [ -82.416, 31.014 ], [ -82.42, 30.795 ] ] ] } },
{ "type": "Feature", "properties": { "geoid": "13065", "state": "GA", "name": "Clinch County", "cx": -82.7317, "cy": 30.9163 }, "geometry": { "type": "Polygon", "coordinates": [ [ [ -82.971, 30.869 ], [ -82.846, 30.835 ], [ -82.766, 30.732 ], [ -82.581, 30.696 ], [ -82.584, 30.592 ], [ -82.419, 30.581 ], [ -82.436, 30.82 ], [ -82.495, 30.82 ], [ -82.491, 30.963 ], [ -82.592, 31.018 ], [ -82.672, 31.184 ], [ -82.971, 31.184 ], [ -82.971, 30.869 ] ] ] } },
{ "type": "Feature", "properties": { "geoid": "13071", "state": "GA", "name": "Colquitt County", "cx": -83.7679, "cy": 31.1596 }, "geometry": { "type": "Polygon", "coordinates": [ [ [ -83.999, 31.335 ], [ -84.004, 31.042 ], [ -83.574, 31.034 ], [ -83.51, 31.206 ], [ -83.513, 31.327 ], [ -83.999, 31.335 ] ] ] } },
{ "type": "Feature", "properties": { "geoid": "13075", "state": "GA", "name": "Cook County", "cx": -83.4318, "cy": 31.152 }, "geometry": { "type": "Polygon", "coordinates": [ [ [ -83.575, 31.078 ], [ -83.295, 31.027 ], [ -83.28, 31.063 ], [ -83.32, 31.098 ], [ -83.336, 31.245 ], [ -83.434, 31.35 ], [ -83.513, 31.327 ], [ -83.51, 31.206 ], [ -83.575, 31.078 ] ] ] } },
{ "type": "Feature", "properties": { "geoid": "13087", "state": "GA", "name": "Decatur County", "cx": -84.5685, "cy": 30.9352 }, "geometry": { "type": "Polygon", "coordinates": [ [ [ -84.863, 30.711 ], [ -84.381, 30.689 ], [ -84.377, 31.079 ], [ -84.731, 31.069 ], [ -84.787, 30.801 ], [ -84.863, 30.711 ] ] ] } },
{ "type": "Feature", "properties": { "geoid": "13099", "state": "GA", "name": "Early County", "cx": -84.8614, "cy": 31.3018 }, "geometry": { "type": "Polygon", "coordinates": [ [ [ -85.108, 31.186 ], [ -85.021, 31.075 ], [ -84.922, 31.073 ], [ -84.917, 31.256 ], [ -84.642, 31.259 ], [ -84.638, 31.434 ], [ -84.789, 31.436 ], [ -84.82, 31.501 ], [ -85.029, 31.486 ], [ -85.052, 31.52 ], [ -85.108, 31.186 ] ] ] } },
{ "type": "Feature", "properties": { "geoid": "13101", "state": "GA", "name": "Echols County", "cx": -82.9042, "cy": 30.7143 }, "geometry": { "type": "Polygon", "coordinates": [ [ [ -83.137, 30.624 ], [ -82.584, 30.592 ], [ -82.581, 30.696 ], [ -82.766, 30.732 ], [ -82.846, 30.835 ], [ -82.971, 30.869 ], [ -83.088, 30.849 ], [ -83.133, 30.79 ], [ -83.137, 30.624 ] ] ] } },
{ "type": "Feature", "properties": { "geoid": "13127", "state": "GA", "name": "Glynn County", "cx": -81.5295, "cy": 31.2253 }, "geometry": { "type": "Polygon", "coordinates": [ [ [ -81.766, 31.17 ], [ -81.632, 31.108 ], [ -81.563, 31.13 ], [ -81.573, 31.097 ], [ -81.413, 30.991 ], [ -81.402, 31.125 ], [ -81.305, 31.206 ], [ -81.264, 31.295 ], [ -81.482, 31.336 ], [ -81.624, 31.453 ], [ -81.732, 31.33 ], [ -81.766, 31.17 ] ] ] } },
{ "type": "Feature", "properties": { "geoid": "13131", "state": "GA", "name": "Grady County", "cx": -84.2296, "cy": 30.8007 }, "geometry": { "type": "Polygon", "coordinates": [ [ [ -84.381, 30.689 ], [ -84.084, 30.676 ], [ -84.076, 30.913 ], [ -84.119, 30.981 ], [ -84.117, 31.078 ], [ -84.377, 31.079 ], [ -84.381, 30.689 ] ] ] } },
{ "type": "Feature", "properties": { "geoid": "13173", "state": "GA", "name": "Lanier County", "cx": -83.0756, "cy": 30.9834 }, "geometry": { "type": "Polygon", "coordinates": [ [ [ -83.165, 31.147 ], [ -83.179, 30.95 ], [ -83.043, 30.947 ], [ -83.019, 30.849 ], [ -82.971, 30.869 ], [ -82.971, 31.184 ], [ -83.047, 31.184 ], [ -83.038, 31.147 ], [ -83.165, 31.147 ] ] ] } },
{ "type": "Feature", "properties": { "geoid": "13185", "state": "GA", "name": "Lowndes County", "cx": -83.27, "cy": 30.8238 }, "geometry": { "type": "Polygon", "coordinates": [ [ [ -83.482, 30.757 ], [ -83.358, 30.637 ], [ -83.137, 30.624 ], [ -83.133, 30.79 ], [ -83.088, 30.849 ], [ -83.019, 30.849 ], [ -83.043, 30.947 ], [ -83.179, 30.95 ], [ -83.198, 31.025 ], [ -83.476, 31.032 ], [ -83.442, 30.914 ], [ -83.346, 30.854 ], [ -83.449, 30.818 ], [ -83.482, 30.757 ] ] ] } },
{ "type": "Feature", "properties": { "geoid": "13191", "state": "GA", "name": "McIntosh County", "cx": -81.4114, "cy": 31.4932 }, "geometry": { "type": "Polygon", "coordinates": [ [ [ -81.663, 31.539 ], [ -81.624, 31.453 ], [ -81.482, 31.336 ], [ -81.264, 31.295 ], [ -81.279, 31.351 ], [ -81.175, 31.54 ], [ -81.222, 31.63 ], [ -81.315, 31.659 ], [ -81.436, 31.642 ], [ -81.492, 31.7 ], [ -81.566, 31.576 ], [ -81.663, 31.539 ] ] ] } },
{ "type": "Feature", "properties": { "geoid": "13201", "state": "GA", "name": "Miller County", "cx": -84.7298, "cy": 31.1677 }, "geometry": { "type": "Polygon", "coordinates": [ [ [ -84.922, 31.073 ], [ -84.543, 31.079 ], [ -84.537, 31.256 ], [ -84.917, 31.256 ], [ -84.922, 31.073 ] ] ] } },
{ "type": "Feature", "properties": { "geoid": "13205", "state": "GA", "name": "Mitchell County", "cx": -84.1866, "cy": 31.2522 }, "geometry": { "type": "Polygon", "coordinates": [ [ [ -84.508, 31.078 ], [ -84.004, 31.077 ], [ -83.998, 31.444 ], [ -84.141, 31.44 ], [ -84.201, 31.356 ], [ -84.341, 31.305 ], [ -84.404, 31.199 ], [ -84.471, 31.168 ], [ -84.508, 31.078 ] ] ] } },
{ "type": "Feature", "properties": { "geoid": "13229", "state": "GA", "name": "Pierce County", "cx": -82.2073, "cy": 31.3324 }, "geometry": { "type": "Polygon", "coordinates": [ [ [ -82.384, 31.291 ], [ -82.315, 31.226 ], [ -82.193, 31.202 ], [ -82.115, 31.27 ], [ -81.997, 31.289 ], [ -82.063, 31.466 ], [ -82.157, 31.472 ], [ -82.227, 31.531 ], [ -82.345, 31.43 ], [ -82.417, 31.417 ], [ -82.384, 31.291 ] ] ] } },
{ "type": "Feature", "properties": { "geoid": "13253", "state": "GA", "name": "Seminole County", "cx": -84.8622, "cy": 30.9078 }, "geometry": { "type": "Polygon", "coordinates": [ [ [ -85.021, 31.075 ], [ -84.918, 30.772 ], [ -84.863, 30.711 ], [ -84.787, 30.801 ], [ -84.731, 31.069 ], [ -85.021, 31.075 ] ] ] } },
{ "type": "Feature", "properties": { "geoid": "13275", "state": "GA", "name": "Thomas County", "cx": -83.9104, "cy": 30.7942 }, "geometry": { "type": "Polygon", "coordinates": [ [ [ -84.119, 30.981 ], [ -84.076, 30.913 ], [ -84.084, 30.676 ], [ -83.744, 30.659 ], [ -83.736, 31.038 ], [ -84.004, 31.042 ], [ -84.004, 31.077 ], [ -84.117, 31.078 ], [ -84.119, 30.981 ] ] ] } },
{ "type": "Feature", "properties": { "geoid": "13277", "state": "GA", "name": "Tift County", "cx": -83.5106, "cy": 31.4495 }, "geometry": { "type": "Polygon", "coordinates": [ [ [ -83.654, 31.331 ], [ -83.461, 31.326 ], [ -83.371, 31.401 ], [ -83.37, 31.465 ], [ -83.339, 31.476 ], [ -83.501, 31.594 ], [ -83.649, 31.596 ], [ -83.654, 31.331 ] ] ] } },
{ "type": "Feature", "properties": { "geoid": "13299", "state": "GA", "name": "Ware County", "cx": -82.3624, "cy": 31.016 }, "geometry": { "type": "Polygon", "coordinates": [ [ [ -82.699, 31.278 ], [ -82.592, 31.018 ], [ -82.491, 30.963 ], [ -82.495, 30.82 ], [ -82.436, 30.82 ], [ -82.419, 30.581 ], [ -82.219, 30.564 ], [ -82.15, 30.784 ], [ -82.42, 30.795 ], [ -82.416, 31.014 ], [ -82.132, 31.011 ], [ -82.208, 31.085 ], [ -82.209, 31.171 ], [ -82.384, 31.291 ], [ -82.417, 31.417 ], [ -82.481, 31.418 ], [ -82.495, 31.469 ], [ -82.628, 31.469 ], [ -82.63, 31.275 ], [ -82.699, 31.278 ] ] ] } }
]
}
