{"type":"FeatureCollection","features":[{"type":"Feature","properties":{"id":"Cell 50"},"geometry":{"type":"Polygon","coordinates":[[[-71.06182,42.26833],[-71.05846,42.2765],[-71.04601,42.2743],[-71.04936,42.26613],[-71.06182,42.26833]]]}},{"type":"Feature","properties":{"id":"Cell 60"},"geometry":{"type":"Polygon","coordinates":[[[-71.07091,42.2787],[-71.06756,42.28688],[-71.05511,42.28468],[-71.05846,42.2765],[-71.07091,42.2787]]]}},{"type":"Feature","properties":{"id":"Cell 61"},"geometry":{"type":"Polygon","coordinates":[[[-71.05846,42.2765],[-71.05511,42.28468],[-71.04265,42.28247],[-71.04601,42.2743],[-71.05846,42.2765]]]}},{"type":"Feature","properties":{"id":"Cell 62"},"geometry":{"type":"Polygon","coordinates":[[[-71.04601,42.2743],[-71.04265,42.28247],[-71.0302,42.28027],[-71.03356,42.2721],[-71.04601,42.2743]]]}},{"type":"Feature","properties":{"id":"Cell 64"},"geometry":{"type":"Polygon","coordinates":[[[-71.1423,42.30006],[-71.13896,42.30823],[-71.1265,42.30604],[-71.12984,42.29786],[-71.1423,42.30006]]]}},{"type":"Feature","properties":{"id":"Cell 65"},"geometry":{"type":"Polygon","coordinates":[[[-71.12984,42.29786],[-71.1265,42.30604],[-71.11404,42.30384],[-71.11739,42.29567],[-71.12984,42.29786]]]}},{"type":"Feature","properties":{"id":"Cell 66"},"geometry":{"type":"Polygon","coordinates":[[[-71.11739,42.29567],[-71.11404,42.30384],[-71.10158,42.30164],[-71.10493,42.29347],[-71.11739,42.29567]]]}},{"type":"Feature","properties":{"id":"Cell 67"},"geometry":{"type":"Polygon","coordinates":[[[-71.10493,42.29347],[-71.10158,42.30164],[-71.08912,42.29945],[-71.09247,42.29127],[-71.10493,42.29347]]]}},{"type":"Feature","properties":{"id":"Cell 68"},"geometry":{"type":"Polygon","coordinates":[[[-71.09247,42.29127],[-71.08912,42.29945],[-71.07666,42.29725],[-71.08002,42.28908],[-71.09247,42.29127]]]}},{"type":"Feature","properties":{"id":"Cell 69"},"geometry":{"type":"Polygon","coordinates":[[[-71.08002,42.28908],[-71.07666,42.29725],[-71.06421,42.29505],[-71.06756,42.28688],[-71.08002,42.28908]]]}},{"type":"Feature","properties":{"id":"Cell 70"},"geometry":{"type":"Polygon","coordinates":[[[-71.06756,42.28688],[-71.06421,42.29505],[-71.05175,42.29285],[-71.05511,42.28468],[-71.06756,42.28688]]]}},{"type":"Feature","properties":{"id":"Cell 71"},"geometry":{"type":"Polygon","coordinates":[[[-71.05511,42.28468],[-71.05175,42.29285],[-71.0393,42.29064],[-71.04265,42.28247],[-71.05511,42.28468]]]}},{"type":"Feature","properties":{"id":"Cell 72"},"geometry":{"type":"Polygon","coordinates":[[[-71.04265,42.28247],[-71.0393,42.29064],[-71.02684,42.28844],[-71.0302,42.28027],[-71.04265,42.28247]]]}},{"type":"Feature","properties":{"id":"Cell 73"},"geometry":{"type":"Polygon","coordinates":[[[-71.13896,42.30823],[-71.13561,42.3164],[-71.12315,42.31421],[-71.1265,42.30604],[-71.13896,42.30823]]]}},{"type":"Feature","properties":{"id":"Cell 74"},"geometry":{"type":"Polygon","coordinates":[[[-71.1265,42.30604],[-71.12315,42.31421],[-71.11069,42.31201],[-71.11404,42.30384],[-71.1265,42.30604]]]}},{"type":"Feature","properties":{"id":"Cell 75"},"geometry":{"type":"Polygon","coordinates":[[[-71.11402,42.30384],[-71.11067,42.31201],[-71.09821,42.30982],[-71.10156,42.30164],[-71.11402,42.30384]]]}},{"type":"Feature","properties":{"id":"Cell 76"},"geometry":{"type":"Polygon","coordinates":[[[-71.10158,42.30164],[-71.09823,42.30982],[-71.08577,42.30762],[-71.08912,42.29945],[-71.10158,42.30164]]]}},{"type":"Feature","properties":{"id":"Cell 77"},"geometry":{"type":"Polygon","coordinates":[[[-71.08912,42.29945],[-71.08577,42.30762],[-71.07331,42.30542],[-71.07666,42.29725],[-71.08912,42.29945]]]}},{"type":"Feature","properties":{"id":"Cell 78"},"geometry":{"type":"Polygon","coordinates":[[[-71.07666,42.29725],[-71.07331,42.30542],[-71.06085,42.30322],[-71.06421,42.29505],[-71.07666,42.29725]]]}},{"type":"Feature","properties":{"id":"Cell 79"},"geometry":{"type":"Polygon","coordinates":[[[-71.06421,42.29505],[-71.06085,42.30322],[-71.0484,42.30102],[-71.05175,42.29285],[-71.06421,42.29505]]]}},{"type":"Feature","properties":{"id":"Cell 80"},"geometry":{"type":"Polygon","coordinates":[[[-71.05175,42.29285],[-71.0484,42.30102],[-71.03594,42.29882],[-71.0393,42.29064],[-71.05175,42.29285]]]}},{"type":"Feature","properties":{"id":"Cell 81"},"geometry":{"type":"Polygon","coordinates":[[[-71.0393,42.29064],[-71.03594,42.29882],[-71.02348,42.29661],[-71.02684,42.28844],[-71.0393,42.29064]]]}},{"type":"Feature","properties":{"id":"Cell 82"},"geometry":{"type":"Polygon","coordinates":[[[-71.13561,42.3164],[-71.13227,42.32458],[-71.1198,42.32238],[-71.12315,42.31421],[-71.13561,42.3164]]]}},{"type":"Feature","properties":{"id":"Cell 83"},"geometry":{"type":"Polygon","coordinates":[[[-71.12315,42.31421],[-71.1198,42.32238],[-71.10734,42.32019],[-71.11069,42.31201],[-71.12315,42.31421]]]}},{"type":"Feature","properties":{"id":"Cell 84"},"geometry":{"type":"Polygon","coordinates":[[[-71.11069,42.31201],[-71.10734,42.32019],[-71.09488,42.31799],[-71.09823,42.30982],[-71.11069,42.31201]]]}},{"type":"Feature","properties":{"id":"Cell 85"},"geometry":{"type":"Polygon","coordinates":[[[-71.09823,42.30982],[-71.09488,42.31799],[-71.08242,42.31579],[-71.08577,42.30762],[-71.09823,42.30982]]]}},{"type":"Feature","properties":{"id":"Cell 86"},"geometry":{"type":"Polygon","coordinates":[[[-71.08577,42.30762],[-71.08242,42.31579],[-71.06996,42.31359],[-71.07331,42.30542],[-71.08577,42.30762]]]}},{"type":"Feature","properties":{"id":"Cell 87"},"geometry":{"type":"Polygon","coordinates":[[[-71.07331,42.30542],[-71.06996,42.31359],[-71.0575,42.31139],[-71.06085,42.30322],[-71.07331,42.30542]]]}},{"type":"Feature","properties":{"id":"Cell 88"},"geometry":{"type":"Polygon","coordinates":[[[-71.06086,42.3032],[-71.05751,42.31138],[-71.04505,42.30917],[-71.04841,42.301],[-71.06086,42.3032]]]}},{"type":"Feature","properties":{"id":"Cell 89"},"geometry":{"type":"Polygon","coordinates":[[[-71.0484,42.30102],[-71.04504,42.30919],[-71.03258,42.30699],[-71.03594,42.29882],[-71.0484,42.30102]]]}},{"type":"Feature","properties":{"id":"Cell 93"},"geometry":{"type":"Polygon","coordinates":[[[-71.13227,42.32458],[-71.12892,42.33275],[-71.11646,42.33055],[-71.1198,42.32238],[-71.13227,42.32458]]]}},{"type":"Feature","properties":{"id":"Cell 94"},"geometry":{"type":"Polygon","coordinates":[[[-71.1198,42.32238],[-71.11646,42.33055],[-71.10399,42.32836],[-71.10734,42.32019],[-71.1198,42.32238]]]}},{"type":"Feature","properties":{"id":"Cell 95"},"geometry":{"type":"Polygon","coordinates":[[[-71.10734,42.32019],[-71.10399,42.32836],[-71.09153,42.32616],[-71.09488,42.31799],[-71.10734,42.32019]]]}},{"type":"Feature","properties":{"id":"Cell 96"},"geometry":{"type":"Polygon","coordinates":[[[-71.09488,42.31799],[-71.09153,42.32616],[-71.07906,42.32396],[-71.08242,42.31579],[-71.09488,42.31799]]]}},{"type":"Feature","properties":{"id":"Cell 97"},"geometry":{"type":"Polygon","coordinates":[[[-71.08242,42.31579],[-71.07906,42.32396],[-71.0666,42.32176],[-71.06996,42.31359],[-71.08242,42.31579]]]}},{"type":"Feature","properties":{"id":"Cell 98"},"geometry":{"type":"Polygon","coordinates":[[[-71.06996,42.31359],[-71.0666,42.32176],[-71.05414,42.31956],[-71.0575,42.31139],[-71.06996,42.31359]]]}},{"type":"Feature","properties":{"id":"Cell 99"},"geometry":{"type":"Polygon","coordinates":[[[-71.0575,42.31139],[-71.05414,42.31956],[-71.04168,42.31736],[-71.04504,42.30919],[-71.0575,42.31139]]]}},{"type":"Feature","properties":{"id":"Cell 100"},"geometry":{"type":"Polygon","coordinates":[[[-71.04504,42.30919],[-71.04168,42.31736],[-71.02922,42.31516],[-71.03258,42.30699],[-71.04504,42.30919]]]}},{"type":"Feature","properties":{"id":"Cell 106"},"geometry":{"type":"Polygon","coordinates":[[[-71.11646,42.33055],[-71.1131,42.33873],[-71.10064,42.33653],[-71.10399,42.32836],[-71.11646,42.33055]]]}},{"type":"Feature","properties":{"id":"Cell 107"},"geometry":{"type":"Polygon","coordinates":[[[-71.10399,42.32836],[-71.10064,42.33653],[-71.08817,42.33433],[-71.09153,42.32616],[-71.10399,42.32836]]]}},{"type":"Feature","properties":{"id":"Cell 108"},"geometry":{"type":"Polygon","coordinates":[[[-71.09153,42.32616],[-71.08817,42.33433],[-71.07571,42.33213],[-71.07906,42.32396],[-71.09153,42.32616]]]}},{"type":"Feature","properties":{"id":"Cell 109"},"geometry":{"type":"Polygon","coordinates":[[[-71.07906,42.32396],[-71.07571,42.33213],[-71.06325,42.32993],[-71.0666,42.32176],[-71.07906,42.32396]]]}},{"type":"Feature","properties":{"id":"Cell 110"},"geometry":{"type":"Polygon","coordinates":[[[-71.0666,42.32176],[-71.06325,42.32993],[-71.05078,42.32773],[-71.05414,42.31956],[-71.0666,42.32176]]]}},{"type":"Feature","properties":{"id":"Cell 111"},"geometry":{"type":"Polygon","coordinates":[[[-71.05414,42.31956],[-71.05078,42.32773],[-71.03832,42.32553],[-71.04168,42.31736],[-71.05414,42.31956]]]}},{"type":"Feature","properties":{"id":"Cell 112"},"geometry":{"type":"Polygon","coordinates":[[[-71.04168,42.31736],[-71.03832,42.32553],[-71.02586,42.32333],[-71.02922,42.31516],[-71.04168,42.31736]]]}},{"type":"Feature","properties":{"id":"Cell 123"},"geometry":{"type":"Polygon","coordinates":[[[-71.1131,42.33873],[-71.10976,42.3469],[-71.09729,42.3447],[-71.10064,42.33653],[-71.1131,42.33873]]]}},{"type":"Feature","properties":{"id":"Cell 124"},"geometry":{"type":"Polygon","coordinates":[[[-71.10064,42.33653],[-71.09729,42.3447],[-71.08482,42.34251],[-71.08817,42.33433],[-71.10064,42.33653]]]}},{"type":"Feature","properties":{"id":"Cell 125"},"geometry":{"type":"Polygon","coordinates":[[[-71.08817,42.33433],[-71.08482,42.34251],[-71.07235,42.34031],[-71.07571,42.33213],[-71.08817,42.33433]]]}},{"type":"Feature","properties":{"id":"Cell 126"},"geometry":{"type":"Polygon","coordinates":[[[-71.07571,42.33213],[-71.07235,42.34031],[-71.05989,42.33811],[-71.06325,42.32993],[-71.07571,42.33213]]]}},{"type":"Feature","properties":{"id":"Cell 127"},"geometry":{"type":"Polygon","coordinates":[[[-71.06325,42.32993],[-71.05989,42.33811],[-71.04742,42.3359],[-71.05078,42.32773],[-71.06325,42.32993]]]}},{"type":"Feature","properties":{"id":"Cell 128"},"geometry":{"type":"Polygon","coordinates":[[[-71.05078,42.32773],[-71.04742,42.3359],[-71.03496,42.3337],[-71.03832,42.32553],[-71.05078,42.32773]]]}},{"type":"Feature","properties":{"id":"Cell 129"},"geometry":{"type":"Polygon","coordinates":[[[-71.03832,42.32553],[-71.03496,42.3337],[-71.0225,42.3315],[-71.02586,42.32333],[-71.03832,42.32553]]]}},{"type":"Feature","properties":{"id":"Cell 142"},"geometry":{"type":"Polygon","coordinates":[[[-71.10976,42.3469],[-71.1064,42.35507],[-71.09393,42.35287],[-71.09729,42.3447],[-71.10976,42.3469]]]}},{"type":"Feature","properties":{"id":"Cell 143"},"geometry":{"type":"Polygon","coordinates":[[[-71.09729,42.3447],[-71.09393,42.35287],[-71.08147,42.35068],[-71.08482,42.34251],[-71.09729,42.3447]]]}},{"type":"Feature","properties":{"id":"Cell 144"},"geometry":{"type":"Polygon","coordinates":[[[-71.08482,42.34251],[-71.08147,42.35068],[-71.069,42.34848],[-71.07235,42.34031],[-71.08482,42.34251]]]}},{"type":"Feature","properties":{"id":"Cell 145"},"geometry":{"type":"Polygon","coordinates":[[[-71.07235,42.34031],[-71.069,42.34848],[-71.05653,42.34628],[-71.05989,42.33811],[-71.07235,42.34031]]]}},{"type":"Feature","properties":{"id":"Cell 146"},"geometry":{"type":"Polygon","coordinates":[[[-71.05988,42.33813],[-71.05652,42.3463],[-71.04406,42.3441],[-71.04742,42.33593],[-71.05988,42.33813]]]}},{"type":"Feature","properties":{"id":"Cell 147"},"geometry":{"type":"Polygon","coordinates":[[[-71.04742,42.3359],[-71.04407,42.34407],[-71.0316,42.34187],[-71.03496,42.3337],[-71.04742,42.3359]]]}},{"type":"Feature","properties":{"id":"Cell 148"},"geometry":{"type":"Polygon","coordinates":[[[-71.03496,42.3337],[-71.0316,42.34187],[-71.01914,42.33967],[-71.0225,42.3315],[-71.03496,42.3337]]]}},{"type":"Feature","properties":{"id":"Cell 149"},"geometry":{"type":"Polygon","coordinates":[[[-71.0225,42.3315],[-71.01914,42.33967],[-71.00668,42.33746],[-71.01004,42.32929],[-71.0225,42.3315]]]}},{"type":"Feature","properties":{"id":"Cell 160"},"geometry":{"type":"Polygon","coordinates":[[[-71.09393,42.35287],[-71.09058,42.36105],[-71.07811,42.35885],[-71.08147,42.35068],[-71.09393,42.35287]]]}},{"type":"Feature","properties":{"id":"Cell 161"},"geometry":{"type":"Polygon","coordinates":[[[-71.08147,42.35068],[-71.07811,42.35885],[-71.06564,42.35665],[-71.069,42.34848],[-71.08147,42.35068]]]}},{"type":"Feature","properties":{"id":"Cell 162"},"geometry":{"type":"Polygon","coordinates":[[[-71.069,42.34848],[-71.06564,42.35665],[-71.05317,42.35445],[-71.05653,42.34628],[-71.069,42.34848]]]}},{"type":"Feature","properties":{"id":"Cell 163"},"geometry":{"type":"Polygon","coordinates":[[[-71.05653,42.34628],[-71.05317,42.35445],[-71.04071,42.35225],[-71.04407,42.34407],[-71.05653,42.34628]]]}},{"type":"Feature","properties":{"id":"Cell 164"},"geometry":{"type":"Polygon","coordinates":[[[-71.04407,42.34407],[-71.04071,42.35225],[-71.02824,42.35004],[-71.0316,42.34187],[-71.04407,42.34407]]]}},{"type":"Feature","properties":{"id":"Cell 165"},"geometry":{"type":"Polygon","coordinates":[[[-71.0316,42.34187],[-71.02824,42.35004],[-71.01578,42.34784],[-71.01914,42.33967],[-71.0316,42.34187]]]}},{"type":"Feature","properties":{"id":"Cell 166"},"geometry":{"type":"Polygon","coordinates":[[[-71.01914,42.33967],[-71.01578,42.34784],[-71.00331,42.34563],[-71.00668,42.33746],[-71.01914,42.33967]]]}},{"type":"Feature","properties":{"id":"Cell 173"},"geometry":{"type":"Polygon","coordinates":[[[-71.07811,42.35885],[-71.07475,42.36702],[-71.06228,42.36482],[-71.06564,42.35665],[-71.07811,42.35885]]]}},{"type":"Feature","properties":{"id":"Cell 174"},"geometry":{"type":"Polygon","coordinates":[[[-71.06564,42.35665],[-71.06228,42.36482],[-71.04981,42.36262],[-71.05317,42.35445],[-71.06564,42.35665]]]}},{"type":"Feature","properties":{"id":"Cell 175"},"geometry":{"type":"Polygon","coordinates":[[[-71.05317,42.35445],[-71.04981,42.36262],[-71.03735,42.36042],[-71.04071,42.35225],[-71.05317,42.35445]]]}},{"type":"Feature","properties":{"id":"Cell 176"},"geometry":{"type":"Polygon","coordinates":[[[-71.04071,42.35225],[-71.03735,42.36042],[-71.02488,42.35821],[-71.02824,42.35004],[-71.04071,42.35225]]]}},{"type":"Feature","properties":{"id":"Cell 182"},"geometry":{"type":"Polygon","coordinates":[[[-71.07475,42.36702],[-71.0714,42.37519],[-71.05892,42.37299],[-71.06228,42.36482],[-71.07475,42.36702]]]}},{"type":"Feature","properties":{"id":"Cell 183"},"geometry":{"type":"Polygon","coordinates":[[[-71.06228,42.36482],[-71.05892,42.37299],[-71.04645,42.37079],[-71.04981,42.36262],[-71.06228,42.36482]]]}}]}
